FLOCK 4G-3              
1 62639U 25009AG  26068.80174065  .00011494  00000+0  43389-3 0  9993
2 62639  97.4062 151.4068 0001320 293.2042  66.9058 15.27179310 63727
STARLINK-33903          
1 63828U 25092AA  26068.29064626  .00027937  00000+0  10206-2 0  9990
2 63828  43.0062 174.7963 0001760 272.7263  87.3387 15.27590184 48600
